[{"OBJECT_NAME":"SDA_1681","OBJECT_ID":"2025-230T","EPOCH":"2026-03-09T23:10:51.790080","MEAN_MOTION":13.85290807,"ECCENTRICITY":0.00048912,"INCLINATION":81.3003,"RA_OF_ASC_NODE":303.6354,"ARG_OF_PERICENTER":106.2164,"MEAN_ANOMALY":253.9532,"EPHEMERIS_TYPE":0,"CLASSIFICATION_TYPE":"U","NORAD_CAT_ID":65991,"ELEMENT_SET_NO":999,"REV_AT_EPOCH":2008,"BSTAR":0.00014476099,"MEAN_MOTION_DOT":1.76e-6,"MEAN_MOTION_DDOT":0},{"OBJECT_NAME":"SL-14 R\/B","OBJECT_ID":"1987-001B","EPOCH":"2026-03-09T19:30:07.547040","MEAN_MOTION":13.84688144,"ECCENTRICITY":0.00124611,"INCLINATION":82.4714,"RA_OF_ASC_NODE":180.5041,"ARG_OF_PERICENTER":106.3212,"MEAN_ANOMALY":253.932,"EPHEMERIS_TYPE":0,"CLASSIFICATION_TYPE":"U","NORAD_CAT_ID":17291,"ELEMENT_SET_NO":999,"REV_AT_EPOCH":97953,"BSTAR":3.3083778e-5,"MEAN_MOTION_DOT":5.2e-7,"MEAN_MOTION_DDOT":0}]
